start=new Date('2022-01-29T00:00:00.000Z').valueOf();
sats=[{"OBJECT_TYPE":"PAYLOAD","TIME_SYSTEM":"UTC","ARG_OF_PERICENTER":"61.8904","FILE":"3286235","MEAN_ELEMENT_THEORY":"SGP4","TLE_LINE2":"2 46160  53.0537 194.1277 0001687  61.8904 298.2255 15.06388867 81388","APOAPSIS":"548.416","REV_AT_EPOCH":"8138","DECAY_DATE":null,"REF_FRAME":"TEME","NORAD_CAT_ID":"46160","ELEMENT_SET_NO":"999","MEAN_MOTION":"15.06388867","OBJECT_ID":"2020-057AV","CENTER_NAME":"EARTH","SITE":"AFETR","GP_ID":"194842348","EPOCH":"2022-01-28T20:29:50.544672","PERIAPSIS":"546.079","CLASSIFICATION_TYPE":"U","OBJECT_NAME":"STARLINK-1598","MEAN_MOTION_DOT":"0.00001317","ECCENTRICITY":"0.00016870","PERIOD":"95.593","INCLINATION":"53.0537","MEAN_MOTION_DDOT":"0.0000000000000","MEAN_ANOMALY":"298.2255","TLE_LINE1":"1 46160U 20057AV  22028.85405723  .00001317  00000-0  10731-3 0  9996","LAUNCH_DATE":"2020-08-18","SEMIMAJOR_AXIS":"6925.383","BSTAR":"0.00010731000000","RA_OF_ASC_NODE":"194.1277","EPHEMERIS_TYPE":"0","COUNTRY_CODE":"US","RCS_SIZE":"LARGE"},{"MEAN_ANOMALY":"283.8807","TLE_LINE1":"1 46161U 20057AW  22028.83194277  .00001137  00000-0  95241-4 0  9994","LAUNCH_DATE":"2020-08-18","SEMIMAJOR_AXIS":"6925.324","BSTAR":"0.00009524100000","RA_OF_ASC_NODE":"194.2257","EPHEMERIS_TYPE":"0","RCS_SIZE":"LARGE","COUNTRY_CODE":"US","SITE":"AFETR","CENTER_NAME":"EARTH","EPOCH":"2022-01-28T19:57:59.855328","PERIAPSIS":"545.715","CLASSIFICATION_TYPE":"U","OBJECT_NAME":"STARLINK-1600","GP_ID":"194843100","PERIOD":"95.592","ECCENTRICITY":"0.00021280","MEAN_MOTION_DOT":"0.00001137","INCLINATION":"53.0531","MEAN_MOTION_DDOT":"0.0000000000000","ELEMENT_SET_NO":"999","MEAN_MOTION":"15.06408060","OBJECT_ID":"2020-057AW","TIME_SYSTEM":"UTC","OBJECT_TYPE":"PAYLOAD","MEAN_ELEMENT_THEORY":"SGP4","TLE_LINE2":"2 46161  53.0531 194.2257 0002128  76.2419 283.8807 15.06408060 81385","ARG_OF_PERICENTER":"76.2419","FILE":"3286235","APOAPSIS":"548.663","REF_FRAME":"TEME","NORAD_CAT_ID":"46161","REV_AT_EPOCH":"8138","DECAY_DATE":null},{"PERIOD":"95.593","ECCENTRICITY":"0.00021820","MEAN_MOTION_DOT":"-0.00000571","INCLINATION":"53.0534","MEAN_MOTION_DDOT":"0.0000000000000","SITE":"AFETR","CENTER_NAME":"EARTH","PERIAPSIS":"545.722","EPOCH":"2022-01-28T20:03:17.845344","CLASSIFICATION_TYPE":"U","OBJECT_NAME":"STARLINK-1603","GP_ID":"194842851","EPHEMERIS_TYPE":"0","RCS_SIZE":"LARGE","COUNTRY_CODE":"US","MEAN_ANOMALY":"275.3160","TLE_LINE1":"1 46162U 20057AX  22028.83562321 -.00000571  00000-0 -19402-4 0  9992","SEMIMAJOR_AXIS":"6925.369","LAUNCH_DATE":"2020-08-18","BSTAR":"-0.00001940200000","RA_OF_ASC_NODE":"194.2047","APOAPSIS":"548.745","REF_FRAME":"TEME","NORAD_CAT_ID":"46162","REV_AT_EPOCH":"8139","DECAY_DATE":null,"TIME_SYSTEM":"UTC","OBJECT_TYPE":"PAYLOAD","TLE_LINE2":"2 46162  53.0534 194.2047 0002182  84.8077 275.3160 15.06393473 81391","MEAN_ELEMENT_THEORY":"SGP4","FILE":"3286235","ARG_OF_PERICENTER":"84.8077","ELEMENT_SET_NO":"999","MEAN_MOTION":"15.06393473","OBJECT_ID":"2020-057AX"},{"REF_FRAME":"TEME","NORAD_CAT_ID":"46163","REV_AT_EPOCH":"8041","DECAY_DATE":null,"APOAPSIS":"548.538","TLE_LINE2":"2 46163  53.0534 174.2269 0001876  83.2954 276.8248 15.06391765 80419","MEAN_ELEMENT_THEORY":"SGP4","FILE":"3286235","ARG_OF_PERICENTER":"83.2954","TIME_SYSTEM":"UTC","OBJECT_TYPE":"PAYLOAD","OBJECT_ID":"2020-057AY","ELEMENT_SET_NO":"999","MEAN_MOTION":"15.06391765","INCLINATION":"53.0534","MEAN_MOTION_DDOT":"0.0000000000000","PERIOD":"95.593","MEAN_MOTION_DOT":"-0.00001679","ECCENTRICITY":"0.00018760","EPOCH":"2022-01-28T20:00:38.454624","PERIAPSIS":"545.940","CLASSIFICATION_TYPE":"U","OBJECT_NAME":"STARLINK-1610","GP_ID":"194841599","SITE":"AFETR","CENTER_NAME":"EARTH","RCS_SIZE":"LARGE","COUNTRY_CODE":"US","EPHEMERIS_TYPE":"0","LAUNCH_DATE":"2020-08-18","SEMIMAJOR_AXIS":"6925.374","BSTAR":"-0.00009387700000","RA_OF_ASC_NODE":"174.2269","MEAN_ANOMALY":"276.8248","TLE_LINE1":"1 46163U 20057AY  22028.83377841 -.00001679  00000-0 -93877-4 0  9992"},{"GP_ID":"194841849","OBJECT_NAME":"STARLINK-1612","CLASSIFICATION_TYPE":"U","EPOCH":"2022-01-28T18:19:47.396928","PERIAPSIS":"545.733","CENTER_NAME":"EARTH","SITE":"AFETR","MEAN_MOTION_DDOT":"0.0000000000000","INCLINATION":"53.0536","ECCENTRICITY":"0.00021650","MEAN_MOTION_DOT":"-0.00001368","PERIOD":"95.593","RA_OF_ASC_NODE":"174.5376","SEMIMAJOR_AXIS":"6925.367","LAUNCH_DATE":"2020-08-18","BSTAR":"-0.00007294800000","TLE_LINE1":"1 46164U 20057AZ  22028.76374302 -.00001368  00000-0 -72948-4 0  9995","MEAN_ANOMALY":"274.3410","COUNTRY_CODE":"US","RCS_SIZE":"LARGE","EPHEMERIS_TYPE":"0","ARG_OF_PERICENTER":"85.7827","FILE":"3286235","MEAN_ELEMENT_THEORY":"SGP4","TLE_LINE2":"2 46164  53.0536 174.5376 0002165  85.7827 274.3410 15.06393960 81663","OBJECT_TYPE":"PAYLOAD","TIME_SYSTEM":"UTC","DECAY_DATE":null,"REV_AT_EPOCH":"8166","NORAD_CAT_ID":"46164","REF_FRAME":"TEME","APOAPSIS":"548.731","OBJECT_ID":"2020-057AZ","MEAN_MOTION":"15.06393960","ELEMENT_SET_NO":"999"},{"COUNTRY_CODE":"US","RCS_SIZE":"LARGE","EPHEMERIS_TYPE":"0","LAUNCH_DATE":"2020-08-18","BSTAR":"0.00013694000000","SEMIMAJOR_AXIS":"6922.349","RA_OF_ASC_NODE":"213.7631","MEAN_ANOMALY":"244.3929","TLE_LINE1":"1 46165U 20057BA  22028.88727873  .00001810  00000-0  13694-3 0  9996","INCLINATION":"53.0514","MEAN_MOTION_DDOT":"0.0000000000000","MEAN_MOTION_DOT":"0.00001810","ECCENTRICITY":"0.00028400","PERIOD":"95.530","GP_ID":"194842601","PERIAPSIS":"542.248","EPOCH":"2022-01-28T21:17:40.882272","CLASSIFICATION_TYPE":"U","OBJECT_NAME":"STARLINK-1613","SITE":"AFETR","CENTER_NAME":"EARTH","OBJECT_ID":"2020-057BA","ELEMENT_SET_NO":"999","MEAN_MOTION":"15.07379144","REV_AT_EPOCH":"7986","DECAY_DATE":null,"REF_FRAME":"TEME","NORAD_CAT_ID":"46165","APOAPSIS":"546.180","ARG_OF_PERICENTER":"115.7354","FILE":"3286235","TLE_LINE2":"2 46165  53.0514 213.7631 0002840 115.7354 244.3929 15.07379144 79869","MEAN_ELEMENT_THEORY":"SGP4","OBJECT_TYPE":"PAYLOAD","TIME_SYSTEM":"UTC"},{"OBJECT_ID":"2020-057BB","MEAN_MOTION":"15.06404176","ELEMENT_SET_NO":"999","DECAY_DATE":null,"REV_AT_EPOCH":"7985","NORAD_CAT_ID":"46166","REF_FRAME":"TEME","APOAPSIS":"548.551","FILE":"3286235","ARG_OF_PERICENTER":"75.4825","MEAN_ELEMENT_THEORY":"SGP4","TLE_LINE2":"2 46166  53.0539 214.2998 0001949  75.4825 284.6380 15.06404176 79853","OBJECT_TYPE":"PAYLOAD","TIME_SYSTEM":"UTC","COUNTRY_CODE":"US","RCS_SIZE":"LARGE","EPHEMERIS_TYPE":"0","RA_OF_ASC_NODE":"214.2998","LAUNCH_DATE":"2020-08-18","SEMIMAJOR_AXIS":"6925.336","BSTAR":"0.00013035000000","TLE_LINE1":"1 46166U 20057BB  22028.81534763  .00001661  00000-0  13035-3 0  9997","MEAN_ANOMALY":"284.6380","MEAN_MOTION_DDOT":"0.0000000000000","INCLINATION":"53.0539","ECCENTRICITY":"0.00019490","MEAN_MOTION_DOT":"0.00001661","PERIOD":"95.592","GP_ID":"194843351","CLASSIFICATION_TYPE":"U","OBJECT_NAME":"STARLINK-1615","EPOCH":"2022-01-28T19:34:06.035232","PERIAPSIS":"545.851","CENTER_NAME":"EARTH","SITE":"AFETR"},{"CENTER_NAME":"EARTH","SITE":"AFETR","PERIAPSIS":"545.814","EPOCH":"2022-01-28T21:30:52.552512","CLASSIFICATION_TYPE":"U","OBJECT_NAME":"STARLINK-1626","GP_ID":"194842099","PERIOD":"95.592","ECCENTRICITY":"0.00020230","MEAN_MOTION_DOT":"0.00000934","INCLINATION":"53.0542","MEAN_MOTION_DDOT":"0.0000000000000","MEAN_ANOMALY":"284.9471","TLE_LINE1":"1 46167U 20057BC  22028.89644158  .00000934  00000-0  81628-4 0  9992","LAUNCH_DATE":"2020-08-18","BSTAR":"0.00008162800000","SEMIMAJOR_AXIS":"6925.350","RA_OF_ASC_NODE":"213.9520","EPHEMERIS_TYPE":"0","RCS_SIZE":"LARGE","COUNTRY_CODE":"US","TIME_SYSTEM":"UTC","OBJECT_TYPE":"PAYLOAD","TLE_LINE2":"2 46167  53.0542 213.9520 0002023  75.1742 284.9471 15.06399459 79866","MEAN_ELEMENT_THEORY":"SGP4","ARG_OF_PERICENTER":"75.1742","FILE":"3286235","APOAPSIS":"548.616","REF_FRAME":"TEME","NORAD_CAT_ID":"46167","REV_AT_EPOCH":"7986","DECAY_DATE":null,"ELEMENT_SET_NO":"999","MEAN_MOTION":"15.06399459","OBJECT_ID":"2020-057BC"},{"RA_OF_ASC_NODE":"164.6655","BSTAR":"-0.00009489300000","LAUNCH_DATE":"2020-08-18","SEMIMAJOR_AXIS":"6925.374","TLE_LINE1":"1 46168U 20057BD  22028.73423440 -.00001694  00000-0 -94893-4 0  9999","MEAN_ANOMALY":"274.4078","RCS_SIZE":"LARGE","COUNTRY_CODE":"US","EPHEMERIS_TYPE":"0","CLASSIFICATION_TYPE":"U","OBJECT_NAME":"STARLINK-1627","EPOCH":"2022-01-28T17:37:17.852160","PERIAPSIS":"545.922","GP_ID":"194842349","SITE":"AFETR","CENTER_NAME":"EARTH","MEAN_MOTION_DDOT":"0.0000000000000","INCLINATION":"53.0542","PERIOD":"95.593","ECCENTRICITY":"0.00019020","MEAN_MOTION_DOT":"-0.00001694","OBJECT_ID":"2020-057BD","MEAN_MOTION":"15.06391746","ELEMENT_SET_NO":"999","MEAN_ELEMENT_THEORY":"SGP4","TLE_LINE2":"2 46168  53.0542 164.6655 0001902  85.7129 274.4078 15.06391746 80533","FILE":"3286235","ARG_OF_PERICENTER":"85.7129","TIME_SYSTEM":"UTC","OBJECT_TYPE":"PAYLOAD","NORAD_CAT_ID":"46168","REF_FRAME":"TEME","DECAY_DATE":null,"REV_AT_EPOCH":"8053","APOAPSIS":"548.556"},{"FILE":"3286235","ARG_OF_PERICENTER":"81.7744","MEAN_ELEMENT_THEORY":"SGP4","TLE_LINE2":"2 46169  52.9981 214.1879 0001791  81.7744 278.3447 15.05591962 79827","OBJECT_TYPE":"PAYLOAD","TIME_SYSTEM":"UTC","REV_AT_EPOCH":"7982","DECAY_DATE":null,"REF_FRAME":"TEME","NORAD_CAT_ID":"46169","APOAPSIS":"550.932","OBJECT_ID":"2020-057BE","ELEMENT_SET_NO":"999","MEAN_MOTION":"15.05591962","GP_ID":"194843101","EPOCH":"2022-01-28T20:08:02.717376","PERIAPSIS":"548.450","CLASSIFICATION_TYPE":"U","OBJECT_NAME":"STARLINK-1628","SITE":"AFETR","CENTER_NAME":"EARTH","INCLINATION":"52.9981","MEAN_MOTION_DDOT":"0.0000000000000","ECCENTRICITY":"0.00017910","MEAN_MOTION_DOT":"0.00001914","PERIOD":"95.643","BSTAR":"0.00015049000000","LAUNCH_DATE":"2020-08-18","SEMIMAJOR_AXIS":"6927.826","RA_OF_ASC_NODE":"214.1879","MEAN_ANOMALY":"278.3447","TLE_LINE1":"1 46169U 20057BE  22028.83892034  .00001914  00000-0  15049-3 0  9998","COUNTRY_CODE":"US","RCS_SIZE":"LARGE","EPHEMERIS_TYPE":"0"}];
